0 OPS 4682 DEB
1 38378U 65027CF  13286.79540505  .00000038  00000-0  10000-3 0   574
2 38378 090.2178 225.4663 0033952 247.3760 112.3715 13.01215972533762
0 OPS 4682 DEB
1 38378U 65027CF  13288.10261879  .00000038  00000-0  10000-3 0   586
2 38378 090.2212 225.4952 0033526 242.4112 117.3607 13.01215930533934
0 OPS 4682 DEB
1 38378U 65027CF  13290.25567543  .00000038  00000-0  10000-3 0   593
2 38378 090.2188 225.5335 0033010 235.2042 124.5879 13.01215283534216
0 OPS 4682 DEB
1 38378U 65027CF  13295.25384964  .00000038  00000-0  10000-3 0   604
2 38378 090.2144 225.6295 0034326 220.6339 139.2673 13.01216992534866
